MEAN_MOTION;ECCENTRICITY;INCLINATION;RA_OF_ASC_NODE;ARG_OF_PERICENTER;MEAN_ANOMALY;BSTAR;MEAN_MOTION_DOT;MEAN_MOTION_DDOT;TYPE
12.62268619;2.93E-5;51.9998;256.5614;93.4329;8.5355;0.00010023;-8.6E-7;0;Globalstar
12.62268622;2.89E-5;51.9999;254.4286;91.8406;314.9071;8.9114E-5;-8.8E-7;0;Globalstar
12.62268681;2.87E-5;51.9999;253.1782;93.9237;20.1139;0.0001127;-8.4E-7;0;Globalstar
12.62268675;2.82E-5;51.9999;251.3022;95.8601;299.4734;6.248E-5;-9.3E-7;0;Globalstar
12.62268705;2.8E-5;52;250.0098;95.5784;69.7942;6.8614E-5;-9.1E-7;0;Globalstar
12.62268701;2.73E-5;52;248.1728;96.5232;292.0195;2.0473E-5;-1.0E-6;0;Globalstar
12.62268688;2.67E-5;51.9999;247.1257;96.5991;55.4892;5.7036E-6;-1.03E-6;0;Globalstar
12.62268697;2.65E-5;51.9999;246.9164;96.7287;7.9595;4.8603E-6;-1.03E-6;0;Globalstar
12.62268703;2.52E-5;52;245.2728;99.1138;299.8813;-4.0337E-5;-1.11E-6;0;Globalstar
12.62268813;2.12E-5;52.0005;241.3491;101.2204;37.424;6.656E-5;-9.2E-7;0;Globalstar
12.62268853;2.47E-5;52;241.0986;98.0079;54.3636;1.8728E-5;-1.0E-6;0;Globalstar
12.6226861;2.63E-5;52;237.9573;87.6194;75.775;-0.00010736;-1.23E-6;0;Globalstar
12.62268622;2.42E-5;52;235.8448;91.436;346.5118;-0.00010107;-1.22E-6;0;Globalstar
12.6226864;2.5E-5;52;234.1754;88.7637;322.2;-6.9137E-5;-1.16E-6;0;Globalstar
12.62268671;2.46E-5;52;231.7272;90.7674;15.9965;-1.2018E-5;-1.06E-6;0;Globalstar
12.62268671;2.42E-5;52.0001;231.0402;89.5966;323.1553;-5.0334E-6;-1.05E-6;0;Globalstar
12.62268649;2.31E-5;52.0001;229.0375;88.5897;74.8585;4.0134E-6;-1.03E-6;0;Globalstar
12.6226864;2.26E-5;52.0002;227.8951;87.0403;342.4723;2.1329E-5;-1.0E-6;0;Globalstar
12.62268688;2.24E-5;52.0003;225.6693;84.5097;68.8343;0.00010151;-8.6E-7;0;Globalstar
12.62268711;2.05E-5;52.0009;223.78;84.4925;10.9494;-1.5289E-5;-1.07E-6;0;Globalstar
12.62268703;2.11E-5;52.0006;220.6547;83.1533;358.763;9.0687E-5;-8.8E-7;0;Globalstar
12.62268703;2.1E-5;52.0006;220.4001;83.0861;18.998;9.3564E-5;-8.7E-7;0;Globalstar
12.62268747;2.04E-5;52.0007;217.7643;80.8169;357.4682;0.00010318;-8.5E-7;0;Globalstar
12.6226873;1.93E-5;52.0008;215.8414;77.6895;352.3449;4.6893E-5;-9.5E-7;0;Globalstar
12.62268758;1.96E-5;52.0008;214.6284;77.7416;3.7533;4.66E-5;-9.5E-7;0;Globalstar
12.62268759;1.97E-5;52.0008;214.098;77.4379;76.1261;4.4511E-5;-9.6E-7;0;Globalstar
12.62268761;1.96E-5;52.0009;210.7237;74.0843;78.7475;-1.0811E-5;-1.06E-6;0;Globalstar
12.62268771;1.92E-5;52.0009;209.6036;71.3518;314.2616;-1.2287E-5;-1.06E-6;0;Globalstar
12.62268748;1.89E-5;52.0009;208.076;72.2926;74.6187;-5.143E-5;-1.13E-6;0;Globalstar
12.62268755;1.85E-5;52.0009;205.6996;69.619;26.2936;-6.5132E-5;-1.15E-6;0;Globalstar
12.62268714;1.87E-5;52.0009;204.4772;65.0302;56.4403;-0.00010156;-1.22E-6;0;Globalstar
12.6226875;1.8E-5;52.001;202.575;63.3874;18.9706;-5.7872E-5;-1.14E-6;0;Globalstar
12.62268755;1.82E-5;52.0009;201.7955;60.7992;105.7567;-4.5588E-5;-1.12E-6;0;Globalstar
12.62268768;1.77E-5;52.0009;198.9048;55.7968;107.8051;7.254E-6;-1.02E-6;0;Globalstar
12.62268753;1.78E-5;52.0009;196.2939;51.1487;51.6247;2.5539E-5;-9.9E-7;0;Globalstar
12.62268729;1.81E-5;52.0009;193.6581;46.6226;32.4486;2.81E-5;-9.9E-7;0;Globalstar
12.62268779;1.91E-5;52.0009;190.2674;40.8681;61.8634;0.00010985;-8.4E-7;0;Globalstar
12.62268901;2.1E-5;52.0009;184.241;31.8701;70.935;0.00017467;-7.2E-7;0;Globalstar
12.62268945;2.19E-5;52.0009;181.6053;30.4313;48.5495;0.00015594;-7.6E-7;0;Globalstar
12.62268985;2.35E-5;52.0008;179.4743;27.062;354.3305;0.00015364;-7.6E-7;0;Globalstar
12.62268931;2.42E-5;52.0008;178.2304;27.3903;51.7538;8.8189E-5;-8.8E-7;0;Globalstar
12.62268941;2.49E-5;52.0007;176.0719;26.2103;36.3524;4.6385E-5;-9.5E-7;0;Globalstar
12.62268944;2.54E-5;52.0007;175.3405;25.0249;49.8978;3.7256E-5;-9.7E-7;0;Globalstar
12.62268928;2.74E-5;52.0005;172.1878;22.2658;81.0441;-1.5251E-5;-1.07E-6;0;Globalstar
12.62268943;3.04E-5;52.0003;168.5405;19.0946;131.0605;-2.5327E-5;-1.08E-6;0;Globalstar
12.62268916;3.26E-5;52.0002;165.4016;18.0061;139.7206;-3.2815E-5;-1.1E-6;0;Globalstar
12.62268928;3.41E-5;52;163.0355;17.4296;73.6499;9.6197E-6;-1.02E-6;0;Globalstar
12.62268939;3.64E-5;51.9999;159.9079;16.8817;64.766;6.0968E-5;-9.3E-7;0;Globalstar
12.6226895;3.67E-5;51.9999;159.4039;16.7347;97.5635;6.8158E-5;-9.2E-7;0;Globalstar
12.62268978;3.85E-5;52.0005;156.7478;15.5725;105.0013;1.8007E-5;-1.01E-6;0;Globalstar
12.62268979;4.06E-5;52.0004;154.1069;15.8259;88.6269;1.1276E-5;-1.02E-6;0;Globalstar
12.62268964;4.21E-5;52.0004;151.9838;15.8837;19.0195;2.4175E-6;-1.03E-6;0;Globalstar
12.62268978;4.37E-5;52.0003;150.4603;15.8954;134.1244;8.8722E-6;-1.02E-6;0;Globalstar
12.62268969;4.47E-5;52.0003;148.8552;16.0926;10.8822;4.5417E-6;-1.03E-6;0;Globalstar
12.62268972;4.68E-5;51.9997;147.4341;16.7156;332.6136;8.0147E-5;-8.9E-7;0;Globalstar
12.62268965;4.85E-5;52.0002;144.9178;16.825;129.8501;7.5053E-6;-1.02E-6;0;Globalstar
12.62268971;4.92E-5;52.0001;144.4336;16.7829;132.961;8.3357E-6;-1.02E-6;0;Globalstar
12.62268953;5.13E-5;52.0001;141.7834;17.4627;129.7815;2.7097E-6;-1.03E-6;0;Globalstar
12.62268951;5.37E-5;52;138.6581;18.0556;116.2569;1.1955E-6;-1.04E-6;0;Globalstar
12.62268951;5.55E-5;52;136.0254;18.8449;86.9855;-1.2659E-6;-1.04E-6;0;Globalstar
12.6226892;5.72E-5;52;133.6597;19.587;18.9692;-2.549E-5;-1.08E-6;0;Globalstar
12.62268964;5.8E-5;52;132.632;19.9798;113.1532;2.8671E-6;-1.03E-6;0;Globalstar
12.62268958;5.93E-5;52;130.4999;20.821;56.2439;-1.193E-5;-1.06E-6;0;Globalstar
12.62268966;6.03E-5;52;129.4925;21.0693;120.4024;-8.7013E-6;-1.05E-6;0;Globalstar
12.62268945;6.11E-5;52;127.3643;21.8807;57.6329;-2.8664E-5;-1.09E-6;0;Globalstar
12.62268954;6.26E-5;52;126.3526;22.2555;128.027;-2.2024E-5;-1.08E-6;0;Globalstar
12.62268909;6.49E-5;51.9993;123.4653;23.6008;118.2231;5.483E-6;-1.03E-6;0;Globalstar
12.62268936;6.67E-5;52.0001;120.3258;24.5838;125.7299;-4.8145E-5;-1.12E-6;0;Globalstar
12.62268947;6.92E-5;52.0002;117.4585;25.8554;86.294;-3.6694E-5;-1.1E-6;0;Globalstar
12.6226893;7.08E-5;52.0003;115.3116;27.0482;51.0761;-4.5357E-5;-1.12E-6;0;Globalstar
12.62268938;7.26E-5;51.9997;114.0773;27.6667;93.3261;2.8058E-5;-9.9E-7;0;Globalstar
12.62268953;7.48E-5;51.9999;111.6372;28.9229;136.0251;2.3181E-5;-1.0E-6;0;Globalstar
12.62268947;7.55E-5;51.9999;111.1881;29.0766;86.5144;7.04E-6;-1.03E-6;0;Globalstar
12.62268946;7.78E-5;52;108.2704;30.5225;122.039;-3.3154E-5;-1.1E-6;0;Globalstar
12.62268957;8.05E-5;52.0002;105.3842;31.8441;110.9215;-5.697E-5;-1.14E-6;0;Globalstar
12.62268938;8.27E-5;52.0003;103.0016;33.2705;67.4628;-8.6652E-5;-1.19E-6;0;Globalstar
12.62268912;8.52E-5;52.0004;100.873;34.4456;4.9496;-0.00010996;-1.23E-6;0;Globalstar
12.62268911;8.71E-5;52.0005;99.3572;35.1394;107.9781;-0.0001094;-1.23E-6;0;Globalstar
12.62268893;8.97E-5;52.0007;96.2166;36.8344;116.1461;-0.00010657;-1.23E-6;0;Globalstar
12.62268889;9.24E-5;52.0009;93.089;38.3949;105.1705;-8.3981E-5;-1.19E-6;0;Globalstar
12.62268855;9.57E-5;52.0012;90.1897;40.4254;112.8138;-6.3906E-5;-1.15E-6;0;Globalstar
12.62268862;9.7E-5;52.0014;88.0744;41.4478;30.7113;-3.0603E-5;-1.09E-6;0;Globalstar
12.62268851;9.94E-5;52.0016;85.6981;43.0249;337.7173;-2.3373E-5;-1.08E-6;0;Globalstar
12.62268859;9.97E-5;52.0016;84.921;43.4324;57.9754;-6.1306E-6;-1.05E-6;0;Globalstar
12.6226888;0.0001006;52.0017;84.1629;43.8267;109.6785;9.0007E-6;-1.02E-6;0;Globalstar
12.62268909;0.0001025;52.002;81.2903;45.3585;78.1646;3.2261E-5;-9.8E-7;0;Globalstar
12.62268895;0.0001037;52.0021;79.6719;46.4388;334.0673;8.7407E-6;-1.02E-6;0;Globalstar
12.62268908;0.0001048;52.0022;78.1363;47.3293;106.4129;1.4888E-5;-1.01E-6;0;Globalstar
12.62268928;0.0001068;52.0025;73.6432;49.4412;334.5466;-2.0533E-5;-1.07E-6;0;Globalstar
12.62268911;0.0001072;52.0026;72.868;50.0382;51.6549;-3.0656E-5;-1.09E-6;0;Globalstar
12.62268898;0.0001085;52.0027;70.5054;51.2071;338.8565;-6.4245E-5;-1.15E-6;0;Globalstar
12.62268882;0.0001094;52.0028;69.7439;51.6766;35.626;-6.2728E-5;-1.15E-6;0;Globalstar
12.62268877;0.0001108;52.0029;67.6188;53.0605;327.9748;-8.2624E-5;-1.19E-6;0;Globalstar
12.62268899;0.000112;52.0029;66.0822;53.754;102.0973;-6.4368E-5;-1.15E-6;0;Globalstar
12.62268895;0.0001127;52.003;64.4785;54.7383;336.1151;-6.729E-5;-1.16E-6;0;Globalstar
12.62268876;0.0001149;52.0031;61.5922;56.5788;324.6403;-5.4264E-5;-1.14E-6;0;Globalstar
12.62268889;0.0001173;52.0033;58.1787;58.6822;20.4746;-1.513E-5;-1.06E-6;0;Globalstar
12.62268903;0.0001179;52.0033;57.6904;59.0937;29.2599;1.3034E-5;-1.01E-6;0;Globalstar
12.62268895;0.0001183;52.0033;57.1655;59.181;93.0207;5.8315E-6;-1.03E-6;0;Globalstar
12.62268884;0.0001194;52.0034;55.2889;60.4414;14.3931;5.375E-6;-1.03E-6;0;Globalstar
12.6226889;0.00012;52.0035;54.5169;60.7196;87.1421;2.745E-5;-9.9E-7;0;Globalstar
12.62268914;0.0001212;52.0036;52.1524;62.1342;16.9732;4.4069E-5;-9.6E-7;0;Globalstar
12.62268906;0.0001217;52.0036;51.3718;62.4671;102.5298;4.9164E-5;-9.5E-7;0;Globalstar
12.62268907;0.0001217;52.0036;51.1395;62.4368;89.4489;4.8285E-5;-9.5E-7;0;Globalstar
12.62268912;0.0001227;52.0037;49.2838;63.5047;339.798;4.381E-5;-9.6E-7;0;Globalstar
12.62268929;0.0001234;52.0037;48.2826;63.8716;34.851;6.9243E-5;-9.1E-7;0;Globalstar
12.62268928;0.0001244;52.0037;46.1261;65.2738;14.0283;5.0637E-5;-9.5E-7;0;Globalstar
12.62268953;0.0001253;52.0037;45.1142;65.8831;84.6651;6.5155E-5;-9.2E-7;0;Globalstar
12.6226896;0.0001262;52.0038;43.2361;67.0994;8.4015;4.9082E-5;-9.5E-7;0;Globalstar
12.62268952;0.0001269;52.0038;41.9761;67.5029;89.9153;3.7253E-5;-9.7E-7;0;Globalstar
12.6226897;0.0001278;52.0038;40.1001;68.7549;10.3662;3.1688E-5;-9.8E-7;0;Globalstar
12.62268976;0.0001295;52.0038;37.2098;70.6476;5.1358;1.2136E-5;-1.02E-6;0;Globalstar
12.62268967;0.0001312;52.0038;34.0736;72.6367;6.9317;-4.3972E-6;-1.05E-6;0;Globalstar
12.62269012;0.0001326;52.0037;30.9494;74.3992;351.0508;2.8735E-5;-9.9E-7;0;Globalstar
12.62269012;0.000133;52.0037;30.1529;74.6207;100.3356;3.202E-5;-9.8E-7;0;Globalstar
12.62268995;0.0001334;52.0037;28.0466;76.1585;4.2964;1.4264E-5;-1.01E-6;0;Globalstar
12.62268985;0.0001339;52.0037;27.0359;76.4408;73.442;1.302E-5;-1.01E-6;0;Globalstar
